CCSDS_OMM_VERS = 2.0
CREATION_DATE  = 
ORIGINATOR     = 

OBJECT_NAME    = TRANSPORTER-15CL
OBJECT_ID      = 2025-276CL
CENTER_NAME    = EARTH
REF_FRAME      = TEME
TIME_SYSTEM    = UTC
MEAN_ELEMENT_THEORY = SGP/SGP4

EPOCH          = 2025-12-26T02:40:35.253696
MEAN_MOTION    = 15.18634563
ECCENTRICITY   = .0002125
INCLINATION    = 97.4398
RA_OF_ASC_NODE = 71.6706
ARG_OF_PERICENTER = 208.1984
MEAN_ANOMALY   = 151.9135

EPHEMERIS_TYPE = 0
CLASSIFICATION_TYPE = U
NORAD_CAT_ID   = 66748
ELEMENT_SET_NO = 999
REV_AT_EPOCH   = 415
BSTAR          = .93217E-3
MEAN_MOTION_DOT = .1927E-3
MEAN_MOTION_DDOT = 0

CCSDS_OMM_VERS = 2.0
CREATION_DATE  = 
ORIGINATOR     = 

OBJECT_NAME    = TRANSPORTER-15CM
OBJECT_ID      = 2025-276CM
CENTER_NAME    = EARTH
REF_FRAME      = TEME
TIME_SYSTEM    = UTC
MEAN_ELEMENT_THEORY = SGP/SGP4

EPOCH          = 2025-12-26T02:49:09.267168
MEAN_MOTION    = 15.17921094
ECCENTRICITY   = .0002145
INCLINATION    = 97.4394
RA_OF_ASC_NODE = 71.6596
ARG_OF_PERICENTER = 175.8719
MEAN_ANOMALY   = 184.2533

EPHEMERIS_TYPE = 0
CLASSIFICATION_TYPE = U
NORAD_CAT_ID   = 66749
ELEMENT_SET_NO = 999
REV_AT_EPOCH   = 415
BSTAR          = .46319E-3
MEAN_MOTION_DOT = .9335E-4
MEAN_MOTION_DDOT = 0

CCSDS_OMM_VERS = 2.0
CREATION_DATE  = 
ORIGINATOR     = 

OBJECT_NAME    = TRANSPORTER-15CN
OBJECT_ID      = 2025-276CN
CENTER_NAME    = EARTH
REF_FRAME      = TEME
TIME_SYSTEM    = UTC
MEAN_ELEMENT_THEORY = SGP/SGP4

EPOCH          = 2025-12-26T04:18:58.396320
MEAN_MOTION    = 15.18728614
ECCENTRICITY   = .0007444
INCLINATION    = 97.4465
RA_OF_ASC_NODE = 71.7443
ARG_OF_PERICENTER = 149.7890
MEAN_ANOMALY   = 210.3775

EPHEMERIS_TYPE = 0
CLASSIFICATION_TYPE = U
NORAD_CAT_ID   = 66750
ELEMENT_SET_NO = 999
REV_AT_EPOCH   = 416
BSTAR          = .20604E-1
MEAN_MOTION_DOT = .455089E-2
MEAN_MOTION_DDOT = 0

CCSDS_OMM_VERS = 2.0
CREATION_DATE  = 
ORIGINATOR     = 

OBJECT_NAME    = ICEYE-X58
OBJECT_ID      = 2025-276CP
CENTER_NAME    = EARTH
REF_FRAME      = TEME
TIME_SYSTEM    = UTC
MEAN_ELEMENT_THEORY = SGP/SGP4

EPOCH          = 2025-12-26T04:24:49.227840
MEAN_MOTION    = 15.17831318
ECCENTRICITY   = .0002648
INCLINATION    = 97.4406
RA_OF_ASC_NODE = 71.7322
ARG_OF_PERICENTER = 191.3982
MEAN_ANOMALY   = 168.7192

EPHEMERIS_TYPE = 0
CLASSIFICATION_TYPE = U
NORAD_CAT_ID   = 66751
ELEMENT_SET_NO = 999
REV_AT_EPOCH   = 416
BSTAR          = .25795E-3
MEAN_MOTION_DOT = .5153E-4
MEAN_MOTION_DDOT = 0

CCSDS_OMM_VERS = 2.0
CREATION_DATE  = 
ORIGINATOR     = 

OBJECT_NAME    = ICEYE-X59
OBJECT_ID      = 2025-276CQ
CENTER_NAME    = EARTH
REF_FRAME      = TEME
TIME_SYSTEM    = UTC
MEAN_ELEMENT_THEORY = SGP/SGP4

EPOCH          = 2025-12-26T04:29:49.300224
MEAN_MOTION    = 15.17637779
ECCENTRICITY   = .0002022
INCLINATION    = 97.4400
RA_OF_ASC_NODE = 71.7273
ARG_OF_PERICENTER = 218.0353
MEAN_ANOMALY   = 142.0738

EPHEMERIS_TYPE = 0
CLASSIFICATION_TYPE = U
NORAD_CAT_ID   = 66752
ELEMENT_SET_NO = 999
REV_AT_EPOCH   = 416
BSTAR          = .39606E-3
MEAN_MOTION_DOT = .7906E-4
MEAN_MOTION_DDOT = 0

CCSDS_OMM_VERS = 2.0
CREATION_DATE  = 
ORIGINATOR     = 

OBJECT_NAME    = ICEYE-X60
OBJECT_ID      = 2025-276CR
CENTER_NAME    = EARTH
REF_FRAME      = TEME
TIME_SYSTEM    = UTC
MEAN_ELEMENT_THEORY = SGP/SGP4

EPOCH          = 2025-12-26T04:35:55.534272
MEAN_MOTION    = 15.17412095
ECCENTRICITY   = .0001105
INCLINATION    = 97.4402
RA_OF_ASC_NODE = 71.7177
ARG_OF_PERICENTER = 249.7032
MEAN_ANOMALY   = 110.4083

EPHEMERIS_TYPE = 0
CLASSIFICATION_TYPE = U
NORAD_CAT_ID   = 66753
ELEMENT_SET_NO = 999
REV_AT_EPOCH   = 416
BSTAR          = .24824E-3
MEAN_MOTION_DOT = .4896E-4
MEAN_MOTION_DDOT = 0

CCSDS_OMM_VERS = 2.0
CREATION_DATE  = 
ORIGINATOR     = 

OBJECT_NAME    = ICEYE-X61
OBJECT_ID      = 2025-276CS
CENTER_NAME    = EARTH
REF_FRAME      = TEME
TIME_SYSTEM    = UTC
MEAN_ELEMENT_THEORY = SGP/SGP4

EPOCH          = 2025-12-26T02:48:30.019968
MEAN_MOTION    = 15.17880162
ECCENTRICITY   = .0002575
INCLINATION    = 97.4398
RA_OF_ASC_NODE = 71.6636
ARG_OF_PERICENTER = 180.2404
MEAN_ANOMALY   = 179.8829

EPHEMERIS_TYPE = 0
CLASSIFICATION_TYPE = U
NORAD_CAT_ID   = 66754
ELEMENT_SET_NO = 999
REV_AT_EPOCH   = 415
BSTAR          = .4356E-3
MEAN_MOTION_DOT = .8764E-4
MEAN_MOTION_DDOT = 0

CCSDS_OMM_VERS = 2.0
CREATION_DATE  = 
ORIGINATOR     = 

OBJECT_NAME    = ICEYE-X62
OBJECT_ID      = 2025-276CT
CENTER_NAME    = EARTH
REF_FRAME      = TEME
TIME_SYSTEM    = UTC
MEAN_ELEMENT_THEORY = SGP/SGP4

EPOCH          = 2025-12-26T02:55:13.254816
MEAN_MOTION    = 15.17652779
ECCENTRICITY   = .0001211
INCLINATION    = 97.4401
RA_OF_ASC_NODE = 71.6566
ARG_OF_PERICENTER = 204.8692
MEAN_ANOMALY   = 155.2483

EPHEMERIS_TYPE = 0
CLASSIFICATION_TYPE = U
NORAD_CAT_ID   = 66755
ELEMENT_SET_NO = 999
REV_AT_EPOCH   = 415
BSTAR          = .24728E-3
MEAN_MOTION_DOT = .4911E-4
MEAN_MOTION_DDOT = 0

CCSDS_OMM_VERS = 2.0
CREATION_DATE  = 
ORIGINATOR     = 

OBJECT_NAME    = TRANSPORTER-15CU
OBJECT_ID      = 2025-276CU
CENTER_NAME    = EARTH
REF_FRAME      = TEME
TIME_SYSTEM    = UTC
MEAN_ELEMENT_THEORY = SGP/SGP4

EPOCH          = 2025-12-26T02:46:39.353664
MEAN_MOTION    = 15.17980462
ECCENTRICITY   = .0001833
INCLINATION    = 97.4407
RA_OF_ASC_NODE = 71.6691
ARG_OF_PERICENTER = 150.3484
MEAN_ANOMALY   = 209.7854

EPHEMERIS_TYPE = 0
CLASSIFICATION_TYPE = U
NORAD_CAT_ID   = 66756
ELEMENT_SET_NO = 999
REV_AT_EPOCH   = 415
BSTAR          = .29284E-3
MEAN_MOTION_DOT = .5885E-4
MEAN_MOTION_DDOT = 0

CCSDS_OMM_VERS = 2.0
CREATION_DATE  = 
ORIGINATOR     = 

OBJECT_NAME    = TRANSPORTER-15CV
OBJECT_ID      = 2025-276CV
CENTER_NAME    = EARTH
REF_FRAME      = TEME
TIME_SYSTEM    = UTC
MEAN_ELEMENT_THEORY = SGP/SGP4

EPOCH          = 2025-12-26T02:44:13.038720
MEAN_MOTION    = 15.18305359
ECCENTRICITY   = .0002714
INCLINATION    = 97.4409
RA_OF_ASC_NODE = 71.6741
ARG_OF_PERICENTER = 319.0723
MEAN_ANOMALY   = 41.0307

EPHEMERIS_TYPE = 0
CLASSIFICATION_TYPE = U
NORAD_CAT_ID   = 66757
ELEMENT_SET_NO = 999
REV_AT_EPOCH   = 415
BSTAR          = .66613E-2
MEAN_MOTION_DOT = .139085E-2
MEAN_MOTION_DDOT = 0

CCSDS_OMM_VERS = 2.0
CREATION_DATE  = 
ORIGINATOR     = 

OBJECT_NAME    = TRANSPORTER-15CW
OBJECT_ID      = 2025-276CW
CENTER_NAME    = EARTH
REF_FRAME      = TEME
TIME_SYSTEM    = UTC
MEAN_ELEMENT_THEORY = SGP/SGP4

EPOCH          = 2025-12-26T02:43:51.168288
MEAN_MOTION    = 15.18113337
ECCENTRICITY   = .0001562
INCLINATION    = 97.4386
RA_OF_ASC_NODE = 71.6642
ARG_OF_PERICENTER = 135.3373
MEAN_ANOMALY   = 224.7987

EPHEMERIS_TYPE = 0
CLASSIFICATION_TYPE = U
NORAD_CAT_ID   = 66758
ELEMENT_SET_NO = 999
REV_AT_EPOCH   = 415
BSTAR          = .32268E-3
MEAN_MOTION_DOT = .6516E-4
MEAN_MOTION_DDOT = 0

CCSDS_OMM_VERS = 2.0
CREATION_DATE  = 
ORIGINATOR     = 

OBJECT_NAME    = TRANSPORTER-15CX
OBJECT_ID      = 2025-276CX
CENTER_NAME    = EARTH
REF_FRAME      = TEME
TIME_SYSTEM    = UTC
MEAN_ELEMENT_THEORY = SGP/SGP4

EPOCH          = 2025-12-26T04:15:58.734432
MEAN_MOTION    = 15.18207268
ECCENTRICITY   = .0001428
INCLINATION    = 97.4397
RA_OF_ASC_NODE = 71.7325
ARG_OF_PERICENTER = 163.4762
MEAN_ANOMALY   = 196.6519

EPHEMERIS_TYPE = 0
CLASSIFICATION_TYPE = U
NORAD_CAT_ID   = 66759
ELEMENT_SET_NO = 999
REV_AT_EPOCH   = 416
BSTAR          = -.22214E-2
MEAN_MOTION_DOT = -.45185E-3
MEAN_MOTION_DDOT = 0

