TRANSPORTER-15CL        
1 66748U 25276CL  25360.11151914  .00019270  00000+0  93217-3 0  9995
2 66748  97.4398  71.6706 0002125 208.1984 151.9135 15.18634563  4159
TRANSPORTER-15CM        
1 66749U 25276CM  25360.11746837  .00009335  00000+0  46319-3 0  9992
2 66749  97.4394  71.6596 0002145 175.8719 184.2533 15.17921094  4159
TRANSPORTER-15CN        
1 66750U 25276CN  25360.17984255  .00455089  00000+0  20604-1 0  9996
2 66750  97.4465  71.7443 0007444 149.7890 210.3775 15.18728614  4163
ICEYE-X58               
1 66751U 25276CP  25360.18390310  .00005153  00000+0  25795-3 0  9992
2 66751  97.4406  71.7322 0002648 191.3982 168.7192 15.17831318  4165
ICEYE-X59               
1 66752U 25276CQ  25360.18737616  .00007906  00000+0  39606-3 0  9991
2 66752  97.4400  71.7273 0002022 218.0353 142.0738 15.17637779  4166
ICEYE-X60               
1 66753U 25276CR  25360.19161498  .00004896  00000+0  24824-3 0  9993
2 66753  97.4402  71.7177 0001105 249.7032 110.4083 15.17412095  4162
ICEYE-X61               
1 66754U 25276CS  25360.11701412  .00008764  00000+0  43560-3 0  9998
2 66754  97.4398  71.6636 0002575 180.2404 179.8829 15.17880162  4150
ICEYE-X62               
1 66755U 25276CT  25360.12168119  .00004911  00000+0  24728-3 0  9996
2 66755  97.4401  71.6566 0001211 204.8692 155.2483 15.17652779  4151
TRANSPORTER-15CU        
1 66756U 25276CU  25360.11573326  .00005885  00000+0  29284-3 0  9999
2 66756  97.4407  71.6691 0001833 150.3484 209.7854 15.17980462  4151
TRANSPORTER-15CV        
1 66757U 25276CV  25360.11403980  .00139085  00000+0  66613-2 0  9994
2 66757  97.4409  71.6741 0002714 319.0723  41.0307 15.18305359  4156
TRANSPORTER-15CW        
1 66758U 25276CW  25360.11378667  .00006516  00000+0  32268-3 0  9990
2 66758  97.4386  71.6642 0001562 135.3373 224.7987 15.18113337  4158
TRANSPORTER-15CX        
1 66759U 25276CX  25360.17776313 -.00045185  00000+0 -22214-2 0  9993
2 66759  97.4397  71.7325 0001428 163.4762 196.6519 15.18207268  4161
